BEIDOU-2 IGSO-1 (C06)   
1 36828U 10036A   23152.51540269 -.00000019  00000+0  00000+0 0  9991
2 36828  54.2310 173.0341 0037973 191.8481 177.1536  1.00296719 47066
BEIDOU-2 G4 (C04)       
1 37210U 10057A   23152.69537994 -.00000091  00000+0  00000+0 0  9990
2 37210   0.9814  55.0693 0001664 153.2165  91.9989  1.00272347 46141
BEIDOU-2 IGSO-2 (C07)   
1 37256U 10068A   23152.18779620 -.00000220  00000+0  00000+0 0  9994
2 37256  49.5849 285.4576 0026896 201.1738 297.3698  1.00256884 45641
BEIDOU-2 IGSO-3 (C08)   
1 37384U 11013A   23151.76796087 -.00000202  00000+0  00000+0 0  9996
2 37384  60.7970  50.8294 0022589 179.9102  40.8834  1.00263312 44518
BEIDOU-2 IGSO-4 (C09)   
1 37763U 11038A   23152.77187551  .00000098  00000+0  00000+0 0  9998
2 37763  54.5040 175.5571 0111091 228.3938 216.0875  1.00292987 43504
BEIDOU-2 IGSO-5 (C10)   
1 37948U 11073A   23152.24264800 -.00000161  00000+0  00000+0 0  9999
2 37948  49.7071 285.1162 0088702 218.5298 286.2392  1.00254746 41989
BEIDOU-2 G5 (C05)       
1 38091U 12008A   23152.89376920  .00000077  00000+0  00000+0 0  9991
2 38091   1.4950  66.3001 0003795 284.3554 279.9262  1.00274491 41227
BEIDOU-2 M3 (C11)       
1 38250U 12018A   23152.15712041 -.00000062  00000+0  00000+0 0  9991
2 38250  56.5610 342.0250 0020308 258.6058 101.1915  1.86231231 75238
BEIDOU-2 M4 (C12)       
1 38251U 12018B   23152.08930037 -.00000062  00000+0  00000+0 0  9991
2 38251  56.4731 341.3274 0011224 261.6333  98.2643  1.86234249 75233
BEIDOU-2 M6 (C14)       
1 38775U 12050B   23152.33597719  .00000008  00000+0  00000+0 0  9991
2 38775  55.6261  99.9556 0014758 328.7593  31.1162  1.86231217 72950
BEIDOU-2 G6 (C02)       
1 38953U 12059A   23152.91306571 -.00000155  00000+0  00000+0 0  9990
2 38953   1.7955  82.3801 0011009 316.2211 264.1738  1.00275163 38766
BEIDOU-3S IGSO-1S (C31) 
1 40549U 15019A   23152.86926987 -.00000192  00000+0  00000+0 0  9997
2 40549  51.2741 308.6761 0038271 191.3860 159.7267  1.00277599 29923
BEIDOU-3S M2S (C57)     
1 40748U 15037A   23152.22538127 -.00000063  00000+0  00000+0 0  9990
2 40748  55.7163 339.9760 0004783  47.2029 312.8599  1.86233372 53410
BEIDOU-3S M1S (C58)     
1 40749U 15037B   23152.02562837 -.00000063  00000+0  00000+0 0  9994
2 40749  55.7195 339.9737 0004140   1.7578 358.2665  1.86232994 53407
BEIDOU-3S IGSO-2S (C56) 
1 40938U 15053A   23152.84383870 -.00000150  00000+0  00000+0 0  9997
2 40938  50.9568 271.8420 0047426 194.0042 182.5927  1.00258879 28202
BEIDOU-2 IGSO-6 (C13)   
1 41434U 16021A   23152.68208375 -.00000166  00000+0  00000+0 0  9990
2 41434  58.6106  49.2363 0045738 224.2080 315.2271  1.00258371 26338
BEIDOU-2 G7 (C03)       
1 41586U 16037A   23152.52040066 -.00000334  00000+0  00000+0 0  9996
2 41586   1.6546  66.6873 0009125 353.5170 127.4332  1.00269658 25641
BEIDOU-3 M1 (C19)       
1 43001U 17069A   23152.63939250  .00000007  00000+0  00000+0 0  9996
2 43001  55.7781  99.9925 0011783 299.6254  60.2197  1.86231571 37901
BEIDOU-3 M2 (C20)       
1 43002U 17069B   23152.57590046  .00000007  00000+0  00000+0 0  9996
2 43002  55.7775 100.0301 0009837 319.2710  40.6180  1.86231144 37898
BEIDOU-3 M7 (C27)       
1 43107U 18003A   23151.25349488 -.00000066  00000+0  00000+0 0  9993
2 43107  55.1720 340.7726 0005502  65.9302 294.1522  1.86232510 36634
BEIDOU-3 M8 (C28)       
1 43108U 18003B   23152.80166344 -.00000065  00000+0  00000+0 0  9993
2 43108  55.1642 340.7071 0001941 255.0690 104.9315  1.86230944 36666
BEIDOU-3 M4 (C22)       
1 43207U 18018A   23152.17042940  .00000009  00000+0  00000+0 0  9991
2 43207  55.7367 100.1104 0007134 338.6410  21.2930  1.86231524 36039
BEIDOU-3 M3 (C21)       
1 43208U 18018B   23152.23701715  .00000009  00000+0  00000+0 0  9991
2 43208  55.7361 100.1127 0009683 309.6693  50.2089  1.86231435 36039
BEIDOU-3 M9 (C29)       
1 43245U 18029A   23151.92354662 -.00000064  00000+0  00000+0 0  9996
2 43245  55.0702 338.4922 0001051  75.4653 284.5669  1.86232704 35187
BEIDOU-3 M10 (C30)      
1 43246U 18029B   23151.85373767 -.00000064  00000+0  00000+0 0  9996
2 43246  55.0673 338.5230 0004318  18.7753 341.2613  1.86232908 35162
BEIDOU-2 IGSO-7 (C16)   
1 43539U 18057A   23152.51849301 -.00000022  00000+0  00000+0 0  9992
2 43539  55.1032 172.6631 0061333 231.4562 143.7366  1.00259937 18002
BEIDOU-3 M5 (C23)       
1 43581U 18062A   23152.07450050  .00000059  00000+0  00000+0 0  9994
2 43581  54.1908 220.1653 0004617 269.6543  90.3740  1.86231965 32922
BEIDOU-3 M6 (C24)       
1 43582U 18062B   23152.47620621  .00000063  00000+0  00000+0 0  9997
2 43582  54.1904 220.1412 0004110 359.4379   0.6453  1.86229531 32937
BEIDOU-3 M12 (C26)      
1 43602U 18067A   23152.41349662  .00000065  00000+0  00000+0 0  9994
2 43602  54.2770 218.7894 0006538  12.6487 347.4525  1.86231738 32410
BEIDOU-3 M11 (C25)      
1 43603U 18067B   23152.54728457  .00000067  00000+0  00000+0 0  9994
2 43603  54.2741 218.7507 0003644 357.0746   3.0089  1.86231647 32441
BEIDOU-3 M13 (C32)      
1 43622U 18072A   23151.96826231  .00000009  00000+0  00000+0 0  9991
2 43622  55.7055  99.6598 0008320 297.6854  62.1948  1.86231611 31942
BEIDOU-3 M14 (C33)      
1 43623U 18072B   23152.37067199  .00000007  00000+0  00000+0 0  9996
2 43623  55.7076  99.6389 0006288 319.2511  40.6651  1.86231612 31949
BEIDOU-3 M16 (C35)      
1 43647U 18078A   23151.99391410 -.00000065  00000+0  00000+0 0  9996
2 43647  54.9659 338.6195 0007735  18.7103 341.3387  1.86227321 31455
BEIDOU-3 M15 (C34)      
1 43648U 18078B   23152.12708334 -.00000065  00000+0  00000+0 0  9990
2 43648  54.9616 338.6194 0004927  33.8099 326.2419  1.86232277 31465
BEIDOU-3 G1 (C59)       
1 43683U 18085A   23152.40464642 -.00000257  00000+0  00000+0 0  9992
2 43683   1.3157 131.4826 0004642 320.7891  83.0288  1.00267300 16919
BEIDOU-3 M17 (C36)      
1 43706U 18093A   23152.27592773  .00000061  00000+0  00000+0 0  9991
2 43706  54.2731 220.0688 0009798 274.9872  84.9835  1.86232047 30814
BEIDOU-3 M18 (C37)      
1 43707U 18093B   23152.67771488  .00000065  00000+0  00000+0 0  9992
2 43707  54.2737 220.0465 0007796 300.4482  59.5599  1.86229804 30836
BEIDOU-3 IGSO-1 (C38)   
1 44204U 19023A   23152.53266434 -.00000235  00000+0  00000+0 0  9994
2 44204  57.0761  49.2470 0018605 202.8401 307.0158  1.00257506 15191
BEIDOU-2 G8 (C01)       
1 44231U 19027A   23152.71230015 -.00000227  00000+0  00000+0 0  9995
2 44231   1.7218  81.2160 0004431 121.8134  87.8787  1.00270551 14938
BEIDOU-3 IGSO-2 (C39)   
1 44337U 19035A   23152.34762014 -.00000026  00000+0  00000+0 0  9996
2 44337  55.1454 168.6278 0030721 202.6222 119.9832  1.00250603 14548
BEIDOU-3 M24 (C46)      
1 44542U 19061A   23152.21319294  .00000060  00000+0  00000+0 0  9994
2 44542  54.5003 220.2815 0007409 338.3188  21.7318  1.86231250 25087
BEIDOU-3 M23 (C45)      
1 44543U 19061B   23152.49297848  .00000063  00000+0  00000+0 0  9998
2 44543  54.4985 220.2417 0004991 319.4770 139.9223  1.86231664 25091
BEIDOU-3 IGSO-3 (C40)   
1 44709U 19073A   23151.79517335 -.00000208  00000+0  00000+0 0  9995
2 44709  56.6953 292.7509 0032059 178.4703 181.4679  1.00256824 13304
BEIDOU-3 M22 (C44)      
1 44793U 19078A   23152.05817703 -.00000065  00000+0  00000+0 0  9996
2 44793  54.8143 338.5962 0006781  26.8770 333.1785  1.86232219 23933
BEIDOU-3 M21 (C43)      
1 44794U 19078B   23152.72592647 -.00000065  00000+0  00000+0 0  9998
2 44794  54.7880 338.5574 0004611  26.7104 333.3322  1.86232668 23959
BEIDOU-3 M19 (C41)      
1 44864U 19090A   23152.80388486  .00000006  00000+0  00000+0 0  9997
2 44864  55.6404  99.8243 0018674 278.7138 327.5945  1.86231803 23528
BEIDOU-3 M20 (C42)      
1 44865U 19090B   23152.60880865  .00000007  00000+0  00000+0 0  9995
2 44865  55.6423  99.8634 0016874 291.4879 273.8366  1.86231754 23501
BEIDOU-3 G2 (C60)       
1 45344U 20017A   23152.58724699 -.00000122  00000+0  00000+0 0  9997
2 45344   2.0080  11.1426 0003124  90.8543  79.2563  1.00270831 12115
BEIDOU-3 G3 (C61)       
1 45807U 20040A   23152.89970087 -.00000333  00000+0  00000+0 0  9999
2 45807   0.7325 327.5184 0006038 319.7849  37.3065  1.00270425 10928
BEIDOU-3 G4             
1 56564U 23066A   23152.72341172 -.00000090  00000+0  00000+0 0  9991
2 56564   3.0780 289.3760 0006735 182.8733 198.1294  1.00272582   252
